OBJECT_NAME,OBJECT_ID,EPOCH,MEAN_MOTION,ECCENTRICITY,INCLINATION,RA_OF_ASC_NODE,ARG_OF_PERICENTER,MEAN_ANOMALY,EPHEMERIS_TYPE,CLASSIFICATION_TYPE,NORAD_CAT_ID,ELEMENT_SET_NO,REV_AT_EPOCH,BSTAR,MEAN_MOTION_DOT,MEAN_MOTION_DDOT
INTELSAT 902 (IS-902),2001-039A,2026-06-12T03:52:45.124896,1.00271817,.00045193,6.1052,71.8452,5.4741,191.2605,0,U,26900,999,9064,0,-.272E-5,0
INTELSAT 904 (IS-904),2002-007A,2026-06-12T01:04:19.075008,1.00271852,.00065524,6.9066,69.2449,2.7126,173.0138,0,U,27380,999,5171,0,-.214E-5,0
DIRECTV 5 (TEMPO 1),2002-023A,2026-06-12T05:49:58.483200,1.00271412,.00032374,4.8646,75.3706,18.4900,144.1055,0,U,27426,999,8807,0,-.45E-6,0
INTELSAT 905 (IS-905),2002-027A,2026-06-12T06:19:39.309888,1.00271656,.00038343,6.7407,69.8579,18.2250,130.2102,0,U,27438,999,5131,0,.104E-5,0
GALAXY 3C (G-3C),2002-030A,2026-06-12T05:54:13.076352,1.00271042,.00016134,3.7178,78.0421,34.3470,141.8954,0,U,27445,999,4644,0,-.139E-5,0
INTELSAT 906 (IS-906),2002-041A,2026-06-12T04:57:21.758976,1.00271938,.00046543,5.7906,72.9834,1.8926,324.1348,0,U,27513,999,8697,0,.25E-6,0
GALAXY 13 (HORIZONS-1),2003-044A,2026-06-12T03:55:56.722080,1.00276404,.00023446,1.4071,83.9292,335.8198,109.7490,0,U,27954,999,4652,0,.147E-5,0
INTELSAT 10-02,2004-022A,2026-06-12T06:21:03.689856,1.00263180,.00003441,0.0120,312.5005,331.5790,70.7738,0,U,28358,999,8050,0,.3E-7,0
DIRECTV 8,2005-019A,2026-06-12T05:47:21.234336,1.00270666,.00028102,0.0197,59.3785,24.6265,144.3566,0,U,28659,999,7702,0,.17E-6,0
GALAXY 28 (G-28),2005-022A,2026-06-12T06:13:34.408128,1.00271650,.00028686,3.2865,78.9934,359.6756,248.2169,0,U,28702,999,5192,0,-.187E-5,0
GALAXY 16 (G-16),2006-023A,2026-06-12T05:53:05.684352,1.00270909,.00024902,0.0351,152.4114,292.5485,164.8929,0,U,29236,999,7292,0,-.111E-5,0
DIRECTV 9S,2006-043A,2026-06-12T05:45:41.004288,1.00270951,.0004886,2.4074,80.9599,9.8441,155.0030,0,U,29494,999,5133,0,-.99E-6,0
GALAXY 17 (G-17),2007-016B,2026-06-12T04:05:38.829984,1.00270264,.00047672,2.9589,79.9617,19.8845,137.0736,0,U,31307,999,6975,0,-.192E-5,0
INTELSAT 11 (IS-11),2007-044B,2026-06-11T17:22:46.547040,0.99053000,.00020783,3.5505,78.7337,88.6775,143.2035,0,U,32253,999,6839,0,-.268E-5,0
HORIZONS-2,2007-063B,2026-06-12T06:00:13.188096,1.00270150,.00037863,2.5888,80.6846,358.7254,197.4542,0,U,32388,999,6776,0,-.239E-5,0
DIRECTV 11,2008-013A,2026-06-12T05:52:58.196064,1.00268108,.00000841,0.0103,249.5878,128.8544,231.2002,0,U,32729,999,4554,0,-.11E-5,0
GALAXY 18 (G-18),2008-024A,2026-06-12T05:46:13.842336,1.00271218,.000272,0.0022,36.4856,41.4329,146.2093,0,U,32951,999,4580,0,.41E-6,0
INTELSAT 25 (IS-25),2008-034A,2026-06-12T07:02:07.811808,0.99037089,.00030455,2.6965,80.4270,56.5758,12.5794,0,U,33153,999,6564,0,-.27E-5,0
GALAXY 19 (G-19),2008-045A,2026-06-12T06:19:54.873120,1.00270561,.00025633,0.0175,299.9292,143.1001,175.5523,0,U,33376,999,6485,0,-.124E-5,0
FM-5,2009-034A,2026-06-12T05:43:18.362208,1.00272583,.0000813,0.0165,298.0594,5.8034,316.3885,0,U,35493,999,4659,0,-.185E-5,0
INTELSAT 14 (IS-14),2009-064A,2026-06-12T06:08:27.397824,1.00271263,.00022563,0.0134,12.5755,60.0699,235.0739,0,U,36097,999,6055,0,-.258E-5,0
INTELSAT 15 (IS-15),2009-067A,2026-06-12T01:37:38.509248,1.00271432,.00020937,0.0106,24.9478,59.1027,285.9159,0,U,36106,999,4117,0,-.169E-5,0
DIRECTV 12,2009-075A,2026-06-12T06:26:43.582272,1.00265903,.00002289,0.0102,100.4312,27.6768,126.4483,0,U,36131,999,4650,0,-.87E-6,0
INTELSAT 16 (IS-16),2010-006A,2026-06-12T05:59:35.748384,1.00271214,.00018818,0.0100,329.2733,129.2422,175.7734,0,U,36397,999,5960,0,-.229E-5,0
XM-5,2010-053A,2026-06-12T04:21:38.707200,1.00271455,.0003069,0.0630,273.8973,283.7749,13.0585,0,U,37185,999,5743,0,-.7E-7,0
INTELSAT 17 (IS-17),2010-065B,2026-06-12T04:57:21.758976,1.00270861,.00025449,0.0157,120.0854,327.2397,313.5513,0,U,37238,999,5319,0,.14E-6,0
INTELSAT 28 (IS-28),2011-016A,2026-06-12T06:12:12.040416,1.00270999,.00036392,1.7929,82.6787,3.5555,235.7042,0,U,37392,999,5323,0,-.21E-5,0
INTELSAT 18 (IS-18),2011-056A,2026-06-12T05:29:56.300640,1.00271490,.00020527,0.0242,283.4203,174.4911,65.1445,0,U,37834,999,5376,0,.68E-6,0
INTELSAT 19 (IS-19),2012-030A,2026-06-12T05:25:56.684064,1.00270465,.00028795,0.0178,349.8036,98.5318,59.7136,0,U,38356,999,5040,0,-.41E-6,0
