INTELSAT 902 (IS-902)   
1 26900U 01039A   26163.16163339 -.00000272  00000+0  00000+0 0  9990
2 26900   6.1052  71.8452 0004519   5.4741 191.2605  1.00271817 90640
INTELSAT 904 (IS-904)   
1 27380U 02007A   26163.04466522 -.00000214  00000+0  00000+0 0  9992
2 27380   6.9066  69.2449 0006552   2.7126 173.0138  1.00271852 51712
DIRECTV 5 (TEMPO 1)     
1 27426U 02023A   26163.24303800 -.00000045  00000+0  00000+0 0  9994
2 27426   4.8646  75.3706 0003237  18.4900 144.1055  1.00271412 88077
INTELSAT 905 (IS-905)   
1 27438U 02027A   26163.26364942  .00000104  00000+0  00000+0 0  9992
2 27438   6.7407  69.8579 0003834  18.2250 130.2102  1.00271656 51317
GALAXY 3C (G-3C)        
1 27445U 02030A   26163.24598468 -.00000139  00000+0  00000+0 0  9993
2 27445   3.7178  78.0421 0001613  34.3470 141.8954  1.00271042 46441
INTELSAT 906 (IS-906)   
1 27513U 02041A   26163.20650184  .00000025  00000+0  00000+0 0  9994
2 27513   5.7906  72.9834 0004654   1.8926 324.1348  1.00271938 86971
GALAXY 13 (HORIZONS-1)  
1 27954U 03044A   26163.16385095  .00000147  00000+0  00000+0 0  9993
2 27954   1.4071  83.9292 0002344 335.8198 109.7490  1.00276404 46526
INTELSAT 10-02          
1 28358U 04022A   26163.26462604  .00000003  00000+0  00000+0 0  9993
2 28358   0.0120 312.5005 0000344 331.5790  70.7738  1.00263180 80502
DIRECTV 8               
1 28659U 05019A   26163.24121799  .00000017  00000+0  00000+0 0  9994
2 28659   0.0197  59.3785 0002810  24.6265 144.3566  1.00270666 77025
GALAXY 28 (G-28)        
1 28702U 05022A   26163.25942602 -.00000187  00000+0  00000+0 0  9991
2 28702   3.2865  78.9934 0002868 359.6756 248.2169  1.00271650 51921
GALAXY 16 (G-16)        
1 29236U 06023A   26163.24520468 -.00000111  00000+0  00000+0 0  9994
2 29236   0.0351 152.4114 0002490 292.5485 164.8929  1.00270909 72928
DIRECTV 9S              
1 29494U 06043A   26163.24005792 -.00000099  00000+0  00000+0 0  9995
2 29494   2.4074  80.9599 0004886   9.8441 155.0030  1.00270951 51330
GALAXY 17 (G-17)        
1 31307U 07016B   26163.17058831 -.00000192  00000+0  00000+0 0  9990
2 31307   2.9589  79.9617 0004767  19.8845 137.0736  1.00270264 69753
INTELSAT 11 (IS-11)     
1 32253U 07044B   26162.72414985 -.00000268  00000+0  00000+0 0  9992
2 32253   3.5505  78.7337 0002078  88.6775 143.2035  0.99053000 68398
HORIZONS-2              
1 32388U 07063B   26163.25015264 -.00000239  00000+0  00000+0 0  9996
2 32388   2.5888  80.6846 0003786 358.7254 197.4542  1.00270150 67761
DIRECTV 11              
1 32729U 08013A   26163.24511801 -.00000110  00000+0  00000+0 0  9996
2 32729   0.0103 249.5878 0000084 128.8544 231.2002  1.00268108 45540
GALAXY 18 (G-18)        
1 32951U 08024A   26163.24043799  .00000041  00000+0  00000+0 0  9993
2 32951   0.0022  36.4856 0002720  41.4329 146.2093  1.00271218 45806
INTELSAT 25 (IS-25)     
1 33153U 08034A   26163.29314597 -.00000270  00000+0  00000+0 0  9996
2 33153   2.6965  80.4270 0003045  56.5758  12.5794  0.99037089 65648
GALAXY 19 (G-19)        
1 33376U 08045A   26163.26382955 -.00000124  00000+0  00000+0 0  9993
2 33376   0.0175 299.9292 0002563 143.1001 175.5523  1.00270561 64858
FM-5                    
1 35493U 09034A   26163.23840697 -.00000185  00000+0  00000+0 0  9990
2 35493   0.0165 298.0594 0000813   5.8034 316.3885  1.00272583 46593
INTELSAT 14 (IS-14)     
1 36097U 09064A   26163.25587266 -.00000258  00000+0  00000+0 0  9997
2 36097   0.0134  12.5755 0002256  60.0699 235.0739  1.00271263 60552
INTELSAT 15 (IS-15)     
1 36106U 09067A   26163.06780682 -.00000169  00000+0  00000+0 0  9998
2 36106   0.0106  24.9478 0002093  59.1027 285.9159  1.00271432 41179
DIRECTV 12              
1 36131U 09075A   26163.26855998 -.00000087  00000+0  00000+0 0  9999
2 36131   0.0102 100.4312 0000228  27.6768 126.4483  1.00265903 46507
INTELSAT 16 (IS-16)     
1 36397U 10006A   26163.24971931 -.00000229  00000+0  00000+0 0  9991
2 36397   0.0100 329.2733 0001881 129.2422 175.7734  1.00271214 59602
XM-5                    
1 37185U 10053A   26163.18169800 -.00000007  00000+0  00000+0 0  9990
2 37185   0.0630 273.8973 0003069 283.7749  13.0585  1.00271455 57438
INTELSAT 17 (IS-17)     
1 37238U 10065B   26163.20650184  .00000014  00000+0  00000+0 0  9992
2 37238   0.0157 120.0854 0002544 327.2397 313.5513  1.00270861 53190
INTELSAT 28 (IS-28)     
1 37392U 11016A   26163.25847269 -.00000210  00000+0  00000+0 0  9996
2 37392   1.7929  82.6787 0003639   3.5555 235.7042  1.00270999 53239
INTELSAT 18 (IS-18)     
1 37834U 11056A   26163.22912385  .00000068  00000+0  00000+0 0  9990
2 37834   0.0242 283.4203 0002052 174.4911  65.1445  1.00271490 53763
INTELSAT 19 (IS-19)     
1 38356U 12030A   26163.22635051 -.00000041  00000+0  00000+0 0  9997
2 38356   0.0178 349.8036 0002879  98.5318  59.7136  1.00270465 50401
